NIMIQ 2                 
1 27632U 02062A   26177.64410111 -.00000067  00000+0  00000+0 0  9993
2 27632   9.4671  56.7999 0005795  33.3539 307.3033  1.00272427 44277
USA 167                 
1 27691U 03008A   26178.24650980  .00000005  00000+0  00000+0 0  9997
2 27691  10.9807  43.3191 0003856 320.2261 238.8681  1.00272936  6878
USA 169 (MILSTAR-2 4)   
1 27711U 03012A   26178.46042979 -.00000263  00000+0  00000+0 0  9999
2 27711  12.3646  29.7580 0100695   9.7713 193.9544  1.00272468 33057
ASIASAT 4               
1 27718U 03014A   26178.56637169 -.00000215  00000+0  00000+0 0  9997
2 27718   4.7298  75.6186 0002815  25.3201 166.1717  1.00270629 45408
HELLAS-SAT 2            
1 27811U 03020A   26178.44775683 -.00000080  00000+0  00000+0 0  9999
2 27811   7.3794  67.7635 0003137  44.6273 314.3288  1.00272359 42942
THURAYA-2               
1 27825U 03026A   26178.17338253  .00000128  00000+0  00000+0 0  9990
2 27825   8.8548  31.9316 0002719  15.3626 334.4268  1.00273466 84443
OPTUS C1                
1 27831U 03028B   26178.56273274 -.00000146  00000+0  00000+0 0  9994
2 27831   6.9149  69.2862 0005830  22.5225 182.2105  1.00272295 53161
USA 170                 
1 27875U 03040A   26175.81680639  .00000125  00000+0  00000+0 0  9994
2 27875  10.5162  47.8771 0002120  60.7420 122.5828  1.00271103 33070
GALAXY 13 (HORIZONS-1)  
1 27954U 03044A   26178.54142366  .00000143  00000+0  00000+0 0  9999
2 27954   1.4453  83.7343 0001708   4.4688 232.3448  1.00270013 46673
YAMAL 202               
1 28089U 03053A   26178.55996946 -.00000075  00000+0  00000+0 0  9996
2 28089   6.3691  70.8132 0003188  17.6816 192.2954  1.00271199 82804
UFO 11 (USA 174)        
1 28117U 03057A   26178.10836399 -.00000101  00000+0  00000+0 0  9998
2 28117   8.9411  33.7775 0002460  71.4204 284.6444  1.00272247 82542
USA 176 (DSP 22)        
1 28158U 04004A   26178.44004345 -.00000295  00000+0  00000+0 0  9995
2 28158  12.0758  25.9949 0001131 324.4698  34.2276  1.00273664 33031
ABS-4 (MOBISAT-1)       
1 28184U 04007A   26178.17676256  .00000045  00000+0  00000+0 0  9995
2 28184   6.0668  71.8883 0005049  20.8798 307.1477  1.00269607 52432
INTELSAT 10-02          
1 28358U 04022A   26178.37827779  .00000000  00000+0  00000+0 0  9996
2 28358   0.0265 287.6029 0000198 187.6423 295.4189  1.00270692 80658
ANIK F2                 
1 28378U 04027A   26178.52624308 -.00000041  00000+0  00000+0 0  9999
2 28378   3.3135  79.3146 0004277  14.9606 259.6792  1.00272297 41365
AMC-15                  
1 28446U 04041A   26178.35773770 -.00000077  00000+0  00000+0 0  9999
2 28446   0.0216  33.8364 0002537  56.1023 209.2626  1.00272213 79401
NSS-10                  
1 28526U 05003A   26178.51371947 -.00000246  00000+0  00000+0 0  9993
2 28526   6.4746  70.3302 0003177  17.6529 335.1264  1.00272319 53259
INMARSAT 4-F1           
1 28628U 05009A   26178.55430373  .00000040  00000+0  00000+0 0  9996
2 28628   5.1811  42.7742 0002961  53.8643 196.6875  1.00272178 77775
DIRECTV 8               
1 28659U 05019A   26178.53033987  .00000013  00000+0  00000+0 0  9999
2 28659   0.0232  70.9098 0003303  29.0207 247.5809  1.00271828 77177
GALAXY 28 (G-28)        
1 28702U 05022A   26178.44446347 -.00000192  00000+0  00000+0 0  9999
2 28702   3.3242  78.8082 0002282  17.3441 312.3088  1.00270939 52072
THAICOM 4               
1 28786U 05028A   26178.46919846 -.00000351  00000+0  00000+0 0  9995
2 28786   0.2715  85.7959 0002015   0.1647 118.0343  1.00270773 52359
ANIK F1R                
1 28868U 05036A   26178.52484873 -.00000068  00000+0  00000+0 0  9994
2 28868   4.3386  76.4571 0004485   7.4721 273.3454  1.00272166 46553
SYRACUSE 3A             
1 28885U 05041B   26177.86017068  .00000136  00000+0  00000+0 0  9998
2 28885   4.6661  75.7197 0002801  14.6770 180.8826  1.00272197 75844
INMARSAT 4-F2           
1 28899U 05044A   26178.36782257 -.00000254  00000+0  00000+0 0  9993
2 28899   5.1080  43.6833 0003308  43.0014 104.7004  1.00271811 75622
METEOSAT-9 (MSG-2)      
1 28912U 05049B   26177.81720226  .00000126  00000+0  00000+0 0  9998
2 28912   9.3827  54.0739 0001988 356.9985 203.7944  1.00277622  7094
EUTELSAT 174A           
1 28924U 05052A   26178.55584291  .00000017  00000+0  00000+0 0  9996
2 28924   4.2451  76.4045 0006576  17.7354 195.6305  1.00274737 52434
ECHOSTAR 10             
1 28935U 06003A   26178.52621132 -.00000044  00000+0  00000+0 0  9999
2 28935   0.0184 341.5945 0002289  65.6122 307.6769  1.00272021 74561
SPAINSAT                
1 28945U 06007A   26178.31885720 -.00000206  00000+0  00000+0 0  9996
2 28945   0.5891  86.3874 0005114   7.4644 266.2023  1.00271371 74313
JCSAT-5A                
1 29045U 06010A   26178.55114008 -.00000317  00000+0  00000+0 0  9995
2 29045   1.1360  84.1266 0002249   1.5793 160.4158  1.00271809 73870
ASTRA 1KR               
1 29055U 06012A   26178.32753022  .00000130  00000+0  00000+0 0  9990
2 29055   0.4998  83.2417 0003821   4.0359 325.0867  1.00269432 45796
GALAXY 16 (G-16)        
1 29236U 06023A   26178.50149941 -.00000115  00000+0  00000+0 0  9996
2 29236   0.0434 121.2499 0002882 324.3207 271.5699  1.00272082 73072
EUTELSAT 33F            
1 29270U 06032A   26178.52768884  .00000166  00000+0  00000+0 0  9994
2 29270   1.6878  82.1439 0003784  10.4621  46.0717  1.00270505 47416
