OBJECT_NAME,OBJECT_ID,EPOCH,MEAN_MOTION,ECCENTRICITY,INCLINATION,RA_OF_ASC_NODE,ARG_OF_PERICENTER,MEAN_ANOMALY,EPHEMERIS_TYPE,CLASSIFICATION_TYPE,NORAD_CAT_ID,ELEMENT_SET_NO,REV_AT_EPOCH,BSTAR,MEAN_MOTION_DOT,MEAN_MOTION_DDOT
NIMIQ 2,2002-062A,2026-06-26T15:27:30.335904,1.00272427,.0005795,9.4671,56.7999,33.3539,307.3033,0,U,27632,999,4427,0,-.67E-6,0
USA 167,2003-008A,2026-06-27T05:54:58.446720,1.00272936,.0003856,10.9807,43.3191,320.2261,238.8681,0,U,27691,999,687,0,.5E-7,0
USA 169 (MILSTAR-2 4),2003-012A,2026-06-27T11:03:01.133856,1.00272468,.0100695,12.3646,29.7580,9.7713,193.9544,0,U,27711,999,3305,0,-.263E-5,0
ASIASAT 4,2003-014A,2026-06-27T13:35:34.514016,1.00270629,.0002815,4.7298,75.6186,25.3201,166.1717,0,U,27718,999,4540,0,-.215E-5,0
HELLAS-SAT 2,2003-020A,2026-06-27T10:44:46.190112,1.00272359,.0003137,7.3794,67.7635,44.6273,314.3288,0,U,27811,999,4294,0,-.8E-6,0
THURAYA-2,2003-026A,2026-06-27T04:09:40.250592,1.00273466,.00027198,8.8548,31.9316,15.3626,334.4268,0,U,27825,999,8444,0,.128E-5,0
OPTUS C1,2003-028B,2026-06-27T13:30:20.108736,1.00272295,.000583,6.9149,69.2862,22.5225,182.2105,0,U,27831,999,5316,0,-.146E-5,0
USA 170,2003-040A,2026-06-24T19:36:12.072096,1.00271103,.00021206,10.5162,47.8771,60.7420,122.5828,0,U,27875,999,3307,0,.125E-5,0
GALAXY 13 (HORIZONS-1),2003-044A,2026-06-27T12:59:39.004224,1.00270013,.0001708,1.4453,83.7343,4.4688,232.3448,0,U,27954,999,4667,0,.143E-5,0
YAMAL 202,2003-053A,2026-06-27T13:26:21.361344,1.00271199,.0003188,6.3691,70.8132,17.6816,192.2954,0,U,28089,999,8280,0,-.75E-6,0
UFO 11 (USA 174),2003-057A,2026-06-27T02:36:02.648736,1.00272247,.000246,8.9411,33.7775,71.4204,284.6444,0,U,28117,999,8254,0,-.101E-5,0
USA 176 (DSP 22),2004-004A,2026-06-27T10:33:39.754080,1.00273664,.0001131,12.0758,25.9949,324.4698,34.2276,0,U,28158,999,3303,0,-.295E-5,0
ABS-4 (MOBISAT-1),2004-007A,2026-06-27T04:14:32.285184,1.00269607,.0005049,6.0668,71.8883,20.8798,307.1477,0,U,28184,999,5243,0,.45E-6,0
INTELSAT 10-02,2004-022A,2026-06-27T09:04:43.201056,1.00270692,.0000198,0.0265,287.6029,187.6423,295.4189,0,U,28358,999,8065,0,0,0
ANIK F2,2004-027A,2026-06-27T12:37:47.402112,1.00272297,.0004277,3.3135,79.3146,14.9606,259.6792,0,U,28378,999,4136,0,-.41E-6,0
AMC-15,2004-041A,2026-06-27T08:35:08.537280,1.00272213,.0002537,0.0216,33.8364,56.1023,209.2626,0,U,28446,999,7940,0,-.77E-6,0
NSS-10,2005-003A,2026-06-27T12:19:45.362208,1.00272319,.0003177,6.4746,70.3302,17.6529,335.1264,0,U,28526,999,5325,0,-.246E-5,0
INMARSAT 4-F1,2005-009A,2026-06-27T13:18:11.842272,1.00272178,.0002961,5.1811,42.7742,53.8643,196.6875,0,U,28628,999,7777,0,.4E-6,0
DIRECTV 8,2005-019A,2026-06-27T12:43:41.364768,1.00271828,.0003303,0.0232,70.9098,29.0207,247.5809,0,U,28659,999,7717,0,.13E-6,0
GALAXY 28 (G-28),2005-022A,2026-06-27T10:40:01.643808,1.00270939,.0002282,3.3242,78.8082,17.3441,312.3088,0,U,28702,999,5207,0,-.192E-5,0
THAICOM 4,2005-028A,2026-06-27T11:15:38.746944,1.00270773,.0002015,0.2715,85.7959,0.1647,118.0343,0,U,28786,999,5235,0,-.351E-5,0
ANIK F1R,2005-036A,2026-06-27T12:35:46.930272,1.00272166,.0004485,4.3386,76.4571,7.4721,273.3454,0,U,28868,999,4655,0,-.68E-6,0
SYRACUSE 3A,2005-041B,2026-06-26T20:38:38.746752,1.00272197,.0002801,4.6661,75.7197,14.6770,180.8826,0,U,28885,999,7584,0,.136E-5,0
INMARSAT 4-F2,2005-044A,2026-06-27T08:49:39.870048,1.00271811,.0003308,5.1080,43.6833,43.0014,104.7004,0,U,28899,999,7562,0,-.254E-5,0
METEOSAT-9 (MSG-2),2005-049B,2026-06-26T19:36:46.275264,1.00277622,.00019886,9.3827,54.0739,356.9985,203.7944,0,U,28912,999,709,0,.126E-5,0
EUTELSAT 174A,2005-052A,2026-06-27T13:20:24.827424,1.00274737,.0006576,4.2451,76.4045,17.7354,195.6305,0,U,28924,999,5243,0,.17E-6,0
ECHOSTAR 10,2006-003A,2026-06-27T12:37:44.658048,1.00272021,.0002289,0.0184,341.5945,65.6122,307.6769,0,U,28935,999,7456,0,-.44E-6,0
SPAINSAT,2006-007A,2026-06-27T07:39:09.262080,1.00271371,.0005114,0.5891,86.3874,7.4644,266.2023,0,U,28945,999,7431,0,-.206E-5,0
JCSAT-5A,2006-010A,2026-06-27T13:13:38.502912,1.00271809,.0002249,1.1360,84.1266,1.5793,160.4158,0,U,29045,999,7387,0,-.317E-5,0
ASTRA 1KR,2006-012A,2026-06-27T07:51:38.611008,1.00269432,.0003821,0.4998,83.2417,4.0359,325.0867,0,U,29055,999,4579,0,.13E-5,0
GALAXY 16 (G-16),2006-023A,2026-06-27T12:02:09.549024,1.00272082,.0002882,0.0434,121.2499,324.3207,271.5699,0,U,29236,999,7307,0,-.115E-5,0
EUTELSAT 33F,2006-032A,2026-06-27T12:39:52.315776,1.00270505,.0003784,1.6878,82.1439,10.4621,46.0717,0,U,29270,999,4741,0,.166E-5,0
